start=new Date('2022-05-06T00:00:00.000Z').valueOf();
sats=[{"REF_FRAME":"TEME","INCLINATION":"53.0562","OBJECT_NAME":"STARLINK-1759","COUNTRY_CODE":"US","RCS_SIZE":"LARGE","PERIAPSIS":"545.928","ARG_OF_PERICENTER":"51.2702","OBJECT_TYPE":"PAYLOAD","PERIOD":"95.595","DECAY_DATE":null,"FILE":"3430750","MEAN_MOTION_DOT":"0.00010729","LAUNCH_DATE":"2020-09-03","OBJECT_ID":"2020-062R","ECCENTRICITY":"0.00020390","NORAD_CAT_ID":"46340","MEAN_MOTION_DDOT":"0.0000000000000","EPOCH":"2022-05-05T15:03:32.115456","MEAN_ANOMALY":"308.8469","SITE":"AFETR","REV_AT_EPOCH":"9268","RA_OF_ASC_NODE":"199.6980","TIME_SYSTEM":"UTC","CLASSIFICATION_TYPE":"U","TLE_LINE2":"2 46340  53.0562 199.6980 0002039  51.2702 308.8469 15.06358698 92687","SEMIMAJOR_AXIS":"6925.475","GP_ID":"202802023","ELEMENT_SET_NO":"999","TLE_LINE1":"1 46340U 20062R   22125.62745504  .00010729  00000-0  73889-3 0  9999","APOAPSIS":"548.752","EPHEMERIS_TYPE":"0","CENTER_NAME":"EARTH","MEAN_ELEMENT_THEORY":"SGP4","BSTAR":"0.00073889000000","MEAN_MOTION":"15.06358698"},{"ARG_OF_PERICENTER":"52.3723","PERIAPSIS":"545.842","RCS_SIZE":"LARGE","COUNTRY_CODE":"US","OBJECT_NAME":"STARLINK-1760","INCLINATION":"53.0535","REF_FRAME":"TEME","DECAY_DATE":null,"PERIOD":"95.591","OBJECT_TYPE":"PAYLOAD","FILE":"3430750","LAUNCH_DATE":"2020-09-03","MEAN_MOTION_DOT":"0.00006920","OBJECT_ID":"2020-062S","RA_OF_ASC_NODE":"179.9678","REV_AT_EPOCH":"9296","SITE":"AFETR","MEAN_ANOMALY":"307.7437","EPOCH":"2022-05-05T13:37:18.311520","MEAN_MOTION_DDOT":"0.0000000000000","NORAD_CAT_ID":"46341","ECCENTRICITY":"0.00018910","TLE_LINE2":"2 46341  53.0535 179.9678 0001891  52.3723 307.7437 15.06420372 92966","CLASSIFICATION_TYPE":"U","TIME_SYSTEM":"UTC","APOAPSIS":"548.461","EPHEMERIS_TYPE":"0","ELEMENT_SET_NO":"999","TLE_LINE1":"1 46341U 20062S   22125.56757305  .00006920  00000-0  48272-3 0  9991","SEMIMAJOR_AXIS":"6925.286","GP_ID":"202801766","MEAN_MOTION":"15.06420372","BSTAR":"0.00048272000000","MEAN_ELEMENT_THEORY":"SGP4","CENTER_NAME":"EARTH"},{"FILE":"3430750","LAUNCH_DATE":"2020-09-03","MEAN_MOTION_DOT":"0.00000269","OBJECT_ID":"2020-062T","INCLINATION":"53.0524","REF_FRAME":"TEME","OBJECT_NAME":"STARLINK-1762","RCS_SIZE":"LARGE","PERIAPSIS":"546.105","COUNTRY_CODE":"US","ARG_OF_PERICENTER":"49.3278","OBJECT_TYPE":"PAYLOAD","PERIOD":"95.592","DECAY_DATE":null,"GP_ID":"202800523","SEMIMAJOR_AXIS":"6925.346","APOAPSIS":"548.317","EPHEMERIS_TYPE":"0","TLE_LINE1":"1 46342U 20062T   22125.67998988  .00000269  00000-0  36979-4 0  9990","ELEMENT_SET_NO":"999","CENTER_NAME":"EARTH","MEAN_ELEMENT_THEORY":"SGP4","BSTAR":"0.00003697900000","MEAN_MOTION":"15.06400887","NORAD_CAT_ID":"46342","ECCENTRICITY":"0.00015970","EPOCH":"2022-05-05T16:19:11.125632","MEAN_MOTION_DDOT":"0.0000000000000","MEAN_ANOMALY":"310.7849","RA_OF_ASC_NODE":"199.4480","SITE":"AFETR","REV_AT_EPOCH":"9269","TIME_SYSTEM":"UTC","CLASSIFICATION_TYPE":"U","TLE_LINE2":"2 46342  53.0524 199.4480 0001597  49.3278 310.7849 15.06400887 92697"},{"MEAN_MOTION":"15.06424698","BSTAR":"0.00096322000000","MEAN_ELEMENT_THEORY":"SGP4","CENTER_NAME":"EARTH","APOAPSIS":"548.411","EPHEMERIS_TYPE":"0","TLE_LINE1":"1 46343U 20062U   22125.87350597  .00014104  00000-0  96322-3 0  9991","ELEMENT_SET_NO":"999","SEMIMAJOR_AXIS":"6925.273","GP_ID":"202801272","CLASSIFICATION_TYPE":"U","TLE_LINE2":"2 46343  53.0529 178.6066 0001839  47.0960 313.0183 15.06424698 93003","TIME_SYSTEM":"UTC","RA_OF_ASC_NODE":"178.6066","REV_AT_EPOCH":"9300","SITE":"AFETR","MEAN_ANOMALY":"313.0183","EPOCH":"2022-05-05T20:57:50.915808","MEAN_MOTION_DDOT":"0.0000000000000","ECCENTRICITY":"0.00018390","NORAD_CAT_ID":"46343","OBJECT_ID":"2020-062U","LAUNCH_DATE":"2020-09-03","FILE":"3430750","MEAN_MOTION_DOT":"0.00014104","DECAY_DATE":null,"PERIOD":"95.591","OBJECT_TYPE":"PAYLOAD","ARG_OF_PERICENTER":"47.0960","PERIAPSIS":"545.864","RCS_SIZE":"LARGE","COUNTRY_CODE":"US","OBJECT_NAME":"STARLINK-1764","INCLINATION":"53.0529","REF_FRAME":"TEME"},{"OBJECT_TYPE":"PAYLOAD","PERIOD":"95.591","DECAY_DATE":null,"INCLINATION":"53.0559","REF_FRAME":"TEME","OBJECT_NAME":"STARLINK-1765","RCS_SIZE":"LARGE","PERIAPSIS":"545.790","COUNTRY_CODE":"US","ARG_OF_PERICENTER":"40.3361","OBJECT_ID":"2020-062V","FILE":"3430353","LAUNCH_DATE":"2020-09-03","MEAN_MOTION_DOT":"0.00000099","TIME_SYSTEM":"UTC","TLE_LINE2":"2 46344  53.0559 180.6012 0001988  40.3361 319.7775 15.06415260 92933","CLASSIFICATION_TYPE":"U","ECCENTRICITY":"0.00019880","NORAD_CAT_ID":"46344","EPOCH":"2022-05-05T10:15:36.062208","MEAN_MOTION_DDOT":"0.0000000000000","MEAN_ANOMALY":"319.7775","RA_OF_ASC_NODE":"180.6012","SITE":"AFETR","REV_AT_EPOCH":"9293","CENTER_NAME":"EARTH","MEAN_ELEMENT_THEORY":"SGP4","BSTAR":"0.00002555800000","MEAN_MOTION":"15.06415260","GP_ID":"202767315","SEMIMAJOR_AXIS":"6925.302","APOAPSIS":"548.544","EPHEMERIS_TYPE":"0","TLE_LINE1":"1 46344U 20062V   22125.42750072  .00000099  00000-0  25558-4 0  9997","ELEMENT_SET_NO":"999"},{"MEAN_ELEMENT_THEORY":"SGP4","CENTER_NAME":"EARTH","MEAN_MOTION":"15.06401343","BSTAR":"-0.00001973700000","GP_ID":"202775086","SEMIMAJOR_AXIS":"6925.344","APOAPSIS":"548.577","EPHEMERIS_TYPE":"0","TLE_LINE1":"1 46345U 20062W   22125.69473701 -.00000576  00000-0 -19737-4 0  9992","ELEMENT_SET_NO":"999","TLE_LINE2":"2 46345  53.0537 199.3855 0001975  44.6928 315.4220 15.06401343 92872","CLASSIFICATION_TYPE":"U","TIME_SYSTEM":"UTC","EPOCH":"2022-05-05T16:40:25.277664","MEAN_MOTION_DDOT":"0.0000000000000","ECCENTRICITY":"0.00019750","NORAD_CAT_ID":"46345","RA_OF_ASC_NODE":"199.3855","REV_AT_EPOCH":"9287","SITE":"AFETR","MEAN_ANOMALY":"315.4220","OBJECT_ID":"2020-062W","LAUNCH_DATE":"2020-09-03","FILE":"3430453","MEAN_MOTION_DOT":"-0.00000576","PERIOD":"95.592","OBJECT_TYPE":"PAYLOAD","DECAY_DATE":null,"OBJECT_NAME":"STARLINK-1767","INCLINATION":"53.0537","REF_FRAME":"TEME","ARG_OF_PERICENTER":"44.6928","PERIAPSIS":"545.842","RCS_SIZE":"LARGE","COUNTRY_CODE":"US"},{"LAUNCH_DATE":"2020-09-03","FILE":"3430353","MEAN_MOTION_DOT":"0.00017722","OBJECT_ID":"2020-062X","RCS_SIZE":"LARGE","PERIAPSIS":"460.176","COUNTRY_CODE":"US","ARG_OF_PERICENTER":"26.7167","INCLINATION":"53.0540","REF_FRAME":"TEME","OBJECT_NAME":"STARLINK-1546","DECAY_DATE":null,"OBJECT_TYPE":"PAYLOAD","PERIOD":"93.851","EPHEMERIS_TYPE":"0","APOAPSIS":"465.565","TLE_LINE1":"1 46346U 20062X   22125.02637120  .00017722  00000-0  53526-3 0  9999","ELEMENT_SET_NO":"999","SEMIMAJOR_AXIS":"6841.006","GP_ID":"202766814","BSTAR":"0.00053526000000","MEAN_MOTION":"15.34344330","CENTER_NAME":"EARTH","MEAN_ELEMENT_THEORY":"SGP4","MEAN_ANOMALY":"333.4037","RA_OF_ASC_NODE":"54.4162","REV_AT_EPOCH":"9468","SITE":"AFETR","NORAD_CAT_ID":"46346","ECCENTRICITY":"0.00039390","EPOCH":"2022-05-05T00:37:58.471680","MEAN_MOTION_DDOT":"0.0000000000000","TIME_SYSTEM":"UTC","TLE_LINE2":"2 46346  53.0540  54.4162 0003939  26.7167 333.4037 15.34344330 94687","CLASSIFICATION_TYPE":"U"},{"TLE_LINE2":"2 46347  53.0548 153.9792 0002109  42.4603 317.6548 15.06400181 93325","CLASSIFICATION_TYPE":"U","TIME_SYSTEM":"UTC","RA_OF_ASC_NODE":"153.9792","SITE":"AFETR","REV_AT_EPOCH":"9332","MEAN_ANOMALY":"317.6548","EPOCH":"2022-05-05T18:51:08.038944","MEAN_MOTION_DDOT":"0.0000000000000","NORAD_CAT_ID":"46347","ECCENTRICITY":"0.00021090","MEAN_MOTION":"15.06400181","BSTAR":"0.00009232900000","MEAN_ELEMENT_THEORY":"SGP4","CENTER_NAME":"EARTH","EPHEMERIS_TYPE":"0","APOAPSIS":"548.674","ELEMENT_SET_NO":"999","TLE_LINE1":"1 46347U 20062Y   22125.78550971  .00001094  00000-0  92329-4 0  9991","SEMIMAJOR_AXIS":"6925.348","GP_ID":"202800774","DECAY_DATE":null,"OBJECT_TYPE":"PAYLOAD","PERIOD":"95.592","ARG_OF_PERICENTER":"42.4603","RCS_SIZE":"LARGE","PERIAPSIS":"545.752","COUNTRY_CODE":"US","OBJECT_NAME":"STARLINK-1547","INCLINATION":"53.0548","REF_FRAME":"TEME","OBJECT_ID":"2020-062Y","LAUNCH_DATE":"2020-09-03","FILE":"3430750","MEAN_MOTION_DOT":"0.00001094"},{"INCLINATION":"53.0544","REF_FRAME":"TEME","OBJECT_NAME":"STARLINK-1553","RCS_SIZE":"LARGE","PERIAPSIS":"545.840","COUNTRY_CODE":"US","ARG_OF_PERICENTER":"42.7977","PERIOD":"95.592","OBJECT_TYPE":"PAYLOAD","DECAY_DATE":null,"LAUNCH_DATE":"2020-09-03","FILE":"3430750","MEAN_MOTION_DOT":"0.00001252","OBJECT_ID":"2020-062Z","ECCENTRICITY":"0.00019780","NORAD_CAT_ID":"46348","EPOCH":"2022-05-05T15:07:32.030976","MEAN_MOTION_DDOT":"0.0000000000000","MEAN_ANOMALY":"317.3165","RA_OF_ASC_NODE":"179.6738","REV_AT_EPOCH":"9296","SITE":"AFETR","TIME_SYSTEM":"UTC","CLASSIFICATION_TYPE":"U","TLE_LINE2":"2 46348  53.0544 179.6738 0001978  42.7977 317.3165 15.06401106 92966","GP_ID":"202802024","SEMIMAJOR_AXIS":"6925.345","EPHEMERIS_TYPE":"0","APOAPSIS":"548.580","TLE_LINE1":"1 46348U 20062Z   22125.63023184  .00001252  00000-0  10291-3 0  9990","ELEMENT_SET_NO":"999","CENTER_NAME":"EARTH","MEAN_ELEMENT_THEORY":"SGP4","BSTAR":"0.00010291000000","MEAN_MOTION":"15.06401106"},{"CENTER_NAME":"EARTH","MEAN_ELEMENT_THEORY":"SGP4","BSTAR":"0.00037707000000","MEAN_MOTION":"15.06405997","SEMIMAJOR_AXIS":"6925.330","GP_ID":"202768058","EPHEMERIS_TYPE":"0","APOAPSIS":"548.592","TLE_LINE1":"1 46349U 20062AA  22125.49432331  .00005340  00000-0  37707-3 0  9996","ELEMENT_SET_NO":"999","TIME_SYSTEM":"UTC","CLASSIFICATION_TYPE":"U","TLE_LINE2":"2 46349  53.0524 155.3003 0002017  45.6828 314.4326 15.06405997 93299","ECCENTRICITY":"0.00020170","NORAD_CAT_ID":"46349","EPOCH":"2022-05-05T11:51:49.533984","MEAN_MOTION_DDOT":"0.0000000000000","MEAN_ANOMALY":"314.4326","RA_OF_ASC_NODE":"155.3003","REV_AT_EPOCH":"9329","SITE":"AFETR","OBJECT_ID":"2020-062AA","MEAN_MOTION_DOT":"0.00005340","FILE":"3430353","LAUNCH_DATE":"2020-09-03","OBJECT_TYPE":"PAYLOAD","PERIOD":"95.592","DECAY_DATE":null,"INCLINATION":"53.0524","REF_FRAME":"TEME","OBJECT_NAME":"STARLINK-1575","PERIAPSIS":"545.798","RCS_SIZE":"LARGE","COUNTRY_CODE":"US","ARG_OF_PERICENTER":"45.6828"}];
